<xml>
<item>
<COMMENT>GENERATED VIA SPACETRACK.ORG API</COMMENT>
<ORIGINATOR>18 SPCS</ORIGINATOR>
<NORAD_CAT_ID>56803</NORAD_CAT_ID>
<OBJECT_NAME>STARLINK-6029</OBJECT_NAME>
<OBJECT_TYPE>PAYLOAD</OBJECT_TYPE>
<CLASSIFICATION_TYPE>U</CLASSIFICATION_TYPE>
<INTLDES>23078AN</INTLDES>
<EPOCH>2023-10-18 13:18:39</EPOCH>
<EPOCH_MICROSECONDS>18528</EPOCH_MICROSECONDS>
<MEAN_MOTION>14.9838653</MEAN_MOTION>
<ECCENTRICITY>0.0003086</ECCENTRICITY>
<INCLINATION>70</INCLINATION>
<RA_OF_ASC_NODE>25.9145</RA_OF_ASC_NODE>
<ARG_OF_PERICENTER>270.6803</ARG_OF_PERICENTER>
<MEAN_ANOMALY>89.4002</MEAN_ANOMALY>
<EPHEMERIS_TYPE>0</EPHEMERIS_TYPE>
<ELEMENT_SET_NO>999</ELEMENT_SET_NO>
<REV_AT_EPOCH>2189</REV_AT_EPOCH>
<BSTAR>-0.00085596</BSTAR>
<MEAN_MOTION_DOT>-0.00010306</MEAN_MOTION_DOT>
<MEAN_MOTION_DDOT>0</MEAN_MOTION_DDOT>
<FILE>4040456</FILE>
<TLE_LINE0>0 STARLINK-6029</TLE_LINE0>
<TLE_LINE1>1 56803U 23078AN 23291.55461827 -.00010306 00000-0 -85596-3 0 9995</TLE_LINE1>
<TLE_LINE2>2 56803 70.0000 25.9145 0003086 270.6803 89.4002 14.98386530 21890</TLE_LINE2>
<OBJECT_ID>2023-078AN</OBJECT_ID>
<OBJECT_NUMBER>56803</OBJECT_NUMBER>
<SEMIMAJOR_AXIS>6950.018</SEMIMAJOR_AXIS>
<PERIOD>96.103</PERIOD>
<APOGEE>574.028</APOGEE>
<PERIGEE>569.738</PERIGEE>
<DECAYED>0</DECAYED>
</item>
<item>
<COMMENT>GENERATED VIA SPACETRACK.ORG API</COMMENT>
<ORIGINATOR>18 SPCS</ORIGINATOR>
<NORAD_CAT_ID>55956</NORAD_CAT_ID>
<OBJECT_NAME>STARLINK-5883</OBJECT_NAME>
<OBJECT_TYPE>PAYLOAD</OBJECT_TYPE>
<CLASSIFICATION_TYPE>U</CLASSIFICATION_TYPE>
<INTLDES>23037AU</INTLDES>
<EPOCH>2023-10-18 14:00:01</EPOCH>
<EPOCH_MICROSECONDS>224</EPOCH_MICROSECONDS>
<MEAN_MOTION>14.98336816</MEAN_MOTION>
<ECCENTRICITY>0.0003032</ECCENTRICITY>
<INCLINATION>70</INCLINATION>
<RA_OF_ASC_NODE>305.7497</RA_OF_ASC_NODE>
<ARG_OF_PERICENTER>278.1817</ARG_OF_PERICENTER>
<MEAN_ANOMALY>61.7821</MEAN_ANOMALY>
<EPHEMERIS_TYPE>0</EPHEMERIS_TYPE>
<ELEMENT_SET_NO>999</ELEMENT_SET_NO>
<REV_AT_EPOCH>3403</REV_AT_EPOCH>
<BSTAR>-0.0014649</BSTAR>
<MEAN_MOTION_DOT>-0.00017531</MEAN_MOTION_DOT>
<MEAN_MOTION_DDOT>0</MEAN_MOTION_DDOT>
<FILE>4039969</FILE>
<TLE_LINE0>0 STARLINK-5883</TLE_LINE0>
<TLE_LINE1>1 55956U 23037AU 23291.58334491 -.00017531 00000-0 -14649-2 0 9994</TLE_LINE1>
<TLE_LINE2>2 55956 70.0000 305.7497 0003032 278.1817 61.7821 14.98336816 34030</TLE_LINE2>
<OBJECT_ID>2023-037AU</OBJECT_ID>
<OBJECT_NUMBER>55956</OBJECT_NUMBER>
<SEMIMAJOR_AXIS>6950.172</SEMIMAJOR_AXIS>
<PERIOD>96.107</PERIOD>
<APOGEE>574.144</APOGEE>
<PERIGEE>569.930</PERIGEE>
<DECAYED>0</DECAYED>
</item>
<item>
<COMMENT>GENERATED VIA SPACETRACK.ORG API</COMMENT>
<ORIGINATOR>18 SPCS</ORIGINATOR>
<NORAD_CAT_ID>56482</NORAD_CAT_ID>
<OBJECT_NAME>STARLINK-6220</OBJECT_NAME>
<OBJECT_TYPE>PAYLOAD</OBJECT_TYPE>
<CLASSIFICATION_TYPE>U</CLASSIFICATION_TYPE>
<INTLDES>23064AL</INTLDES>
<EPOCH>2023-10-18 15:03:08</EPOCH>
<EPOCH_MICROSECONDS>908416</EPOCH_MICROSECONDS>
<MEAN_MOTION>14.98332553</MEAN_MOTION>
<ECCENTRICITY>0.0002765</ECCENTRICITY>
<INCLINATION>70</INCLINATION>
<RA_OF_ASC_NODE>165.7291</RA_OF_ASC_NODE>
<ARG_OF_PERICENTER>272.0801</ARG_OF_PERICENTER>
<MEAN_ANOMALY>88.0041</MEAN_ANOMALY>
<EPHEMERIS_TYPE>0</EPHEMERIS_TYPE>
<ELEMENT_SET_NO>999</ELEMENT_SET_NO>
<REV_AT_EPOCH>2532</REV_AT_EPOCH>
<BSTAR>-0.000053611</BSTAR>
<MEAN_MOTION_DOT>-0.00000733</MEAN_MOTION_DOT>
<MEAN_MOTION_DDOT>0</MEAN_MOTION_DDOT>
<FILE>4040311</FILE>
<TLE_LINE0>0 STARLINK-6220</TLE_LINE0>
<TLE_LINE1>1 56482U 23064AL 23291.62718644 -.00000733 00000-0 -53611-4 0 9990</TLE_LINE1>
<TLE_LINE2>2 56482 70.0000 165.7291 0002765 272.0801 88.0041 14.98332553 25321</TLE_LINE2>
<OBJECT_ID>2023-064AL</OBJECT_ID>
<OBJECT_NUMBER>56482</OBJECT_NUMBER>
<SEMIMAJOR_AXIS>6950.185</SEMIMAJOR_AXIS>
<PERIOD>96.107</PERIOD>
<APOGEE>573.972</APOGEE>
<PERIGEE>570.128</PERIGEE>
<DECAYED>0</DECAYED>
</item>
<item>
<COMMENT>GENERATED VIA SPACETRACK.ORG API</COMMENT>
<ORIGINATOR>18 SPCS</ORIGINATOR>
<NORAD_CAT_ID>56482</NORAD_CAT_ID>
<OBJECT_NAME>STARLINK-6220</OBJECT_NAME>
<OBJECT_TYPE>PAYLOAD</OBJECT_TYPE>
<CLASSIFICATION_TYPE>U</CLASSIFICATION_TYPE>
<INTLDES>23064AL</INTLDES>
<EPOCH>2023-10-18 15:03:08</EPOCH>
<EPOCH_MICROSECONDS>908416</EPOCH_MICROSECONDS>
<MEAN_MOTION>14.98332553</MEAN_MOTION>
<ECCENTRICITY>0.0002765</ECCENTRICITY>
<INCLINATION>70</INCLINATION>
<RA_OF_ASC_NODE>165.7291</RA_OF_ASC_NODE>
<ARG_OF_PERICENTER>272.0801</ARG_OF_PERICENTER>
<MEAN_ANOMALY>88.0041</MEAN_ANOMALY>
<EPHEMERIS_TYPE>0</EPHEMERIS_TYPE>
<ELEMENT_SET_NO>999</ELEMENT_SET_NO>
<REV_AT_EPOCH>2496</REV_AT_EPOCH>
<BSTAR>-0.000053611</BSTAR>
<MEAN_MOTION_DOT>-0.00000733</MEAN_MOTION_DOT>
<MEAN_MOTION_DDOT>0</MEAN_MOTION_DDOT>
<FILE>4040456</FILE>
<TLE_LINE0>0 STARLINK-6220</TLE_LINE0>
<TLE_LINE1>1 56482U 23064AL 23291.62718644 -.00000733 00000-0 -53611-4 0 9990</TLE_LINE1>
<TLE_LINE2>2 56482 70.0000 165.7291 0002765 272.0801 88.0041 14.98332553 24960</TLE_LINE2>
<OBJECT_ID>2023-064AL</OBJECT_ID>
<OBJECT_NUMBER>56482</OBJECT_NUMBER>
<SEMIMAJOR_AXIS>6950.185</SEMIMAJOR_AXIS>
<PERIOD>96.107</PERIOD>
<APOGEE>573.972</APOGEE>
<PERIGEE>570.128</PERIGEE>
<DECAYED>0</DECAYED>
</item>
<item>
<COMMENT>GENERATED VIA SPACETRACK.ORG API</COMMENT>
<ORIGINATOR>18 SPCS</ORIGINATOR>
<NORAD_CAT_ID>55282</NORAD_CAT_ID>
<OBJECT_NAME>STARLINK-5330</OBJECT_NAME>
<OBJECT_TYPE>PAYLOAD</OBJECT_TYPE>
<CLASSIFICATION_TYPE>U</CLASSIFICATION_TYPE>
<INTLDES>23010P</INTLDES>
<EPOCH>2023-10-18 16:43:56</EPOCH>
<EPOCH_MICROSECONDS>377920</EPOCH_MICROSECONDS>
<MEAN_MOTION>14.98329331</MEAN_MOTION>
<ECCENTRICITY>0.0002938</ECCENTRICITY>
<INCLINATION>70</INCLINATION>
<RA_OF_ASC_NODE>85.4348</RA_OF_ASC_NODE>
<ARG_OF_PERICENTER>270.3872</ARG_OF_PERICENTER>
<MEAN_ANOMALY>89.6951</MEAN_ANOMALY>
<EPHEMERIS_TYPE>0</EPHEMERIS_TYPE>
<ELEMENT_SET_NO>999</ELEMENT_SET_NO>
<REV_AT_EPOCH>4201</REV_AT_EPOCH>
<BSTAR>0.000025318</BSTAR>
<MEAN_MOTION_DOT>0.00000209</MEAN_MOTION_DOT>
<MEAN_MOTION_DDOT>0</MEAN_MOTION_DDOT>
<FILE>4040456</FILE>
<TLE_LINE0>0 STARLINK-5330</TLE_LINE0>
<TLE_LINE1>1 55282U 23010P 23291.69718030 .00000209 00000-0 25318-4 0 9993</TLE_LINE1>
<TLE_LINE2>2 55282 70.0000 85.4348 0002938 270.3872 89.6951 14.98329331 42012</TLE_LINE2>
<OBJECT_ID>2023-010P</OBJECT_ID>
<OBJECT_NUMBER>55282</OBJECT_NUMBER>
<SEMIMAJOR_AXIS>6950.195</SEMIMAJOR_AXIS>
<PERIOD>96.107</PERIOD>
<APOGEE>574.102</APOGEE>
<PERIGEE>570.018</PERIGEE>
<DECAYED>0</DECAYED>
</item>
<item>
<COMMENT>GENERATED VIA SPACETRACK.ORG API</COMMENT>
<ORIGINATOR>18 SPCS</ORIGINATOR>
<NORAD_CAT_ID>55298</NORAD_CAT_ID>
<OBJECT_NAME>STARLINK-5272</OBJECT_NAME>
<OBJECT_TYPE>PAYLOAD</OBJECT_TYPE>
<CLASSIFICATION_TYPE>U</CLASSIFICATION_TYPE>
<INTLDES>23010AF</INTLDES>
<EPOCH>2023-10-18 19:25:49</EPOCH>
<EPOCH_MICROSECONDS>283616</EPOCH_MICROSECONDS>
<MEAN_MOTION>14.98356563</MEAN_MOTION>
<ECCENTRICITY>0.0002914</ECCENTRICITY>
<INCLINATION>70</INCLINATION>
<RA_OF_ASC_NODE>65.1558</RA_OF_ASC_NODE>
<ARG_OF_PERICENTER>270.1533</ARG_OF_PERICENTER>
<MEAN_ANOMALY>89.9292</MEAN_ANOMALY>
<EPHEMERIS_TYPE>0</EPHEMERIS_TYPE>
<ELEMENT_SET_NO>999</ELEMENT_SET_NO>
<REV_AT_EPOCH>4221</REV_AT_EPOCH>
<BSTAR>-0.00037822</BSTAR>
<MEAN_MOTION_DOT>-0.00004606</MEAN_MOTION_DOT>
<MEAN_MOTION_DDOT>0</MEAN_MOTION_DDOT>
<FILE>4040431</FILE>
<TLE_LINE0>0 STARLINK-5272</TLE_LINE0>
<TLE_LINE1>1 55298U 23010AF 23291.80959819 -.00004606 00000-0 -37822-3 0 9994</TLE_LINE1>
<TLE_LINE2>2 55298 70.0000 65.1558 0002914 270.1533 89.9292 14.98356563 42213</TLE_LINE2>
<OBJECT_ID>2023-010AF</OBJECT_ID>
<OBJECT_NUMBER>55298</OBJECT_NUMBER>
<SEMIMAJOR_AXIS>6950.111</SEMIMAJOR_AXIS>
<PERIOD>96.105</PERIOD>
<APOGEE>574.001</APOGEE>
<PERIGEE>569.950</PERIGEE>
<DECAYED>0</DECAYED>
</item>
<item>
<COMMENT>GENERATED VIA SPACETRACK.ORG API</COMMENT>
<ORIGINATOR>18 SPCS</ORIGINATOR>
<NORAD_CAT_ID>55298</NORAD_CAT_ID>
<OBJECT_NAME>STARLINK-5272</OBJECT_NAME>
<OBJECT_TYPE>PAYLOAD</OBJECT_TYPE>
<CLASSIFICATION_TYPE>U</CLASSIFICATION_TYPE>
<INTLDES>23010AF</INTLDES>
<EPOCH>2023-10-18 19:25:49</EPOCH>
<EPOCH_MICROSECONDS>283616</EPOCH_MICROSECONDS>
<MEAN_MOTION>14.98356563</MEAN_MOTION>
<ECCENTRICITY>0.0002914</ECCENTRICITY>
<INCLINATION>70</INCLINATION>
<RA_OF_ASC_NODE>65.1558</RA_OF_ASC_NODE>
<ARG_OF_PERICENTER>270.1533</ARG_OF_PERICENTER>
<MEAN_ANOMALY>89.9292</MEAN_ANOMALY>
<EPHEMERIS_TYPE>0</EPHEMERIS_TYPE>
<ELEMENT_SET_NO>999</ELEMENT_SET_NO>
<REV_AT_EPOCH>4340</REV_AT_EPOCH>
<BSTAR>-0.00037822</BSTAR>
<MEAN_MOTION_DOT>-0.00004606</MEAN_MOTION_DOT>
<MEAN_MOTION_DDOT>0</MEAN_MOTION_DDOT>
<FILE>4040456</FILE>
<TLE_LINE0>0 STARLINK-5272</TLE_LINE0>
<TLE_LINE1>1 55298U 23010AF 23291.80959819 -.00004606 00000-0 -37822-3 0 9994</TLE_LINE1>
<TLE_LINE2>2 55298 70.0000 65.1558 0002914 270.1533 89.9292 14.98356563 43405</TLE_LINE2>
<OBJECT_ID>2023-010AF</OBJECT_ID>
<OBJECT_NUMBER>55298</OBJECT_NUMBER>
<SEMIMAJOR_AXIS>6950.111</SEMIMAJOR_AXIS>
<PERIOD>96.105</PERIOD>
<APOGEE>574.001</APOGEE>
<PERIGEE>569.950</PERIGEE>
<DECAYED>0</DECAYED>
</item>

</xml>
